ONEWEB-0427             
1 50499U 21132AG  24339.83747301  .00000014  00000+0  30651-5 0  9994
2 50499  87.9108  86.7400 0001781 110.0574 250.0750 13.18685076149190
ONEWEB-0429             
1 50500U 21132AH  24339.59719620  .00000092  00000+0  20166-3 0  9997
2 50500  87.9110  86.8043 0001512  97.0016 263.1288 13.18685151147831
ONEWEB-0430             
1 50501U 21132AJ  24339.58613615  .00000209  00000+0  49740-3 0  9993
2 50501  87.9110  86.8055 0001220 110.0297 250.0966 13.18688929147876
ONEWEB-0432             
1 50502U 21132AK  24339.54186658  .00000062  00000+0  12475-3 0  9994
2 50502  87.9107  86.8051 0001978 135.4893 224.6398 13.18688905147827
ONEWEB-0440             
1 50503U 21132AL  24339.60510647  .00000076  00000+0  16058-3 0  9997
2 50503  87.9109  86.7864 0001768  88.1781 271.9554 13.18687999147829
ONEWEB-0450             
1 50504U 21132AM  24339.82651676 -.00001804  00000+0 -46087-2 0  9996
2 50504  87.9110  86.7708 0001251  99.2554 260.8720 13.18690448149172
ONEWEB-0410             
1 51622U 22012A   24339.41584531  .00000059  00000+0  11836-3 0  9990
2 51622  87.9085 117.3603 0002933 112.8474 247.2968 13.17650993139982
ONEWEB-0411             
1 51623U 22012B   24339.77068987  .00000699  00000+0  19671-2 0  9996
2 51623  87.8892 147.6718 0000878 105.9663 254.1561 13.10373579137305
